0 POLAR
1 23802U 96013A   13282.69361923  .00000050  00000-0  10000-3 0  4971
2 23802 080.3836 301.8114 6955138 019.1760 357.6631 01.29844748 84699
0 POLAR
1 23802U 96013A   13283.46388166  .00000069  00000-0  10000-3 0  4986
2 23802 080.2810 301.7666 6957402 019.1532 357.6704 01.29843783 84705
0 POLAR
1 23802U 96013A   13286.54444678  .00000070  00000-0  10000-3 0  4981
2 23802 080.3691 301.7426 6959243 019.0203 357.6944 01.29844718 84745
0 POLAR
1 23802U 96013A   13290.39527451  .00000072  00000-0  10000-3 0  4993
2 23802 080.3550 301.6744 6962929 018.8703 357.7155 01.29844484 84798
0 POLAR
1 23802U 96013A   13290.39535990  .00000000  00000-0  10000-3 0  4991
2 23802 080.3581 301.6731 6963742 018.8787 357.7376 01.29843762 84797
0 POLAR
1 23802U 96013A   13291.16543540  .00000061  00000-0  10000-3 0  5007
2 23802 080.3526 301.6617 6963230 018.8461 357.7056 01.29844164 84804
0 POLAR
1 23802U 96013A   13292.70571752  .00000037  00000-0  10000-3 0  5018
2 23802 080.3490 301.6339 6964468 018.7927 357.6677 01.29843558 84821
0 POLAR
1 23802U 96013A   13294.24602922  .00000023  00000-0  10000-3 0  5029
2 23802 080.3442 301.6057 6966300 018.7357 357.6508 01.29843362 84847
0 POLAR
1 23802U 96013A   13295.01619882  .00000023  00000-0  10000-3 0  5039
2 23802 080.3490 301.5912 6965611 018.7152 357.6601 01.29843317 84851
